OPTICUBE 04             
1 41851U 16067D   25025.53327960  .00005313  00000+0  36974-3 0  9991
2 41851  98.0860 206.5414 0017746  33.4040 326.8301 15.05815275448663
AEROCUBE 8D             
1 41852U 16067E   25025.49201961  .00013348  00000+0  73302-3 0  9992
2 41852  98.1113 213.9958 0005392  76.8977 283.2854 15.14255105448967
AEROCUBE 8C             
1 41853U 16067F   25025.43995516  .00013972  00000+0  76583-3 0  9990
2 41853  98.0943 212.0007 0007250  14.5704 345.5733 15.14300533448947
PROMETHEUS 2-1          
1 41854U 16067G   25025.49783968  .00045044  00000+0  13700-2 0  9999
2 41854  98.0911 224.4714 0009653  11.2071 348.9383 15.33849199449604
PROMETHEUS 2-3          
1 41855U 16067H   25025.50367816  .00046110  00000+0  14059-2 0  9995
2 41855  98.0855 223.7543 0008419  19.6711 340.4852 15.33775232449600
CORVUS BC2              
1 42846U 17042X   25025.55339431  .00006737  00000+0  52784-3 0  9996
2 42846  97.3675 204.8276 0014404  36.0854 324.1340 15.01215967410763
CORVUS BC1              
1 42847U 17042Y   25025.49193263  .00007392  00000+0  57612-3 0  9994
2 42847  97.3698 205.2011 0013556  14.1838 345.9765 15.01398060410776
MIRATA                  
1 43015U 17073C   25025.57021091  .00051021  00000+0  14533-2 0  9996
2 43015  97.5635 276.3355 0118143 209.1218 150.3400 15.29154552390040
MAKERSAT 0              
1 43016U 17073D   25025.60393111  .00026109  00000+0  11999-2 0  9998
2 43016  97.5421 265.4835 0161688 245.7338 112.6928 15.09371972389327
SIRION PATHFINDER-2     
1 43759U 18099B   25025.09337680  .00010497  00000+0  69438-3 0  9998
2 43759  97.5005  81.3314 0008954 248.7323 111.2949 15.07510566335881
CORVUS BC4              
1 43767U 18099K   25025.13274302  .00008747  00000+0  59908-3 0  9999
2 43767  97.4830  77.7892 0008244 316.0339  44.0231 15.06271972335750
MOVE-II                 
1 43780U 18099Y   25025.12900721  .00067495  00000+0  17431-2 0  9993
2 43780  97.4879  94.8634 0003895 278.8154  81.2650 15.38885257336761
SPACEBEE-7              
1 43816U 18099BL  25025.71157920  .00033421  00000+0  13147-2 0  9995
2 43816  97.5179  94.3523 0006776 230.2973 129.7668 15.25556157336160
SHIELDS 1               
1 43850U 18104B   25025.31185255  .00035893  00000+0  62353-3 0  9997
2 43850  85.0204 131.0425 0007269 311.5720  48.4913 15.50638755340427
SONATE                  
1 44400U 19038Q   25025.60699984  .00066175  00000+0  94805-3 0  9991
2 44400  97.7108  38.8343 0011830  38.8729 321.3373 15.55880677308381
DUCHIFAT-3              
1 44854U 19089C   25025.66118192  .00044296  00000+0  13813-2 0  9992
2 44854  36.9483 123.9091 0009729 155.4301 204.6916 15.32242577282144
M2 PATHFINDER           
1 45727U 20037E   25025.45152908  .00007479  00000+0  59822-3 0  9990
2 45727  97.7865 207.3685 0013264  78.2067 282.0644 15.00427776249231
NETSAT-4                
1 46504U 20068U   25025.61180151  .00022390  00000+0  91370-3 0  9990
2 46504  97.8314 356.5265 0006763 327.3491  32.7326 15.24414958237947
NETSAT-3                
1 46505U 20068V   25025.49569289  .00019966  00000+0  83794-3 0  9996
2 46505  97.8305 355.6212 0006713 340.6714  19.4266 15.23494484237903
NETSAT-1                
1 46506U 20068W   25025.44295048  .00016914  00000+0  78638-3 0  9992
2 46506  97.8328 354.2456 0006674 355.3719   4.7452 15.20029598237808
NETSAT-2                
1 46507U 20068X   25025.70626937  .00022404  00000+0  91988-3 0  9991
2 46507  97.8306 356.1859 0005831   2.1484 357.9776 15.24214183237906
WILDTRACKCUBE-SIMBA     
1 47941U 21022K   25025.78235625  .00033937  00000+0  99573-3 0  9994
2 47941  97.4386 288.1899 0014319  78.3636 281.9213 15.34991330212447
GRBALPHA                
1 47959U 21022AD  25025.77534154  .00074949  00000+0  13526-2 0  9992
2 47959  97.4368 292.7415 0011827  67.6935 292.5568 15.49410478211563
BEESAT-8                
1 48085U 21022AP  25024.22097960  .06165242  25331-5  21242-2 0  9998
2 48085  97.4815 300.4940 0005722 122.1753 238.0094 16.25410100212122
LEDSAT                  
1 49069U 21073D   25025.67475477  .00051173  00000+0  11795-2 0  9993
2 49069  97.4091 103.4397 0013067 208.3655 151.6882 15.42335756190522
ROBUSTA-1F (MTCUBE 2)   
1 53109U 22080E   25025.18734994 -.00000003  00000+0  00000+0 0  9991
2 53109  70.1270 114.9297 0008394  38.7298 321.3962  6.42583997 59420
SITRO-AIS 5 (KATYS)     
1 57176U 23091L   25025.81123672  .00015570  00000+0  81692-3 0  9991
2 57176  97.5821  82.7713 0016754  78.4815 281.8297 15.15711672 87136
SITRO-AIS 6 (CHIRKIN)   
1 57192U 23091AC  25025.79224624  .00015074  00000+0  79242-3 0  9992
2 57192  97.5816  82.7807 0016588  78.2866 282.0227 15.15653960 87132
SITRO-AIS 8 (ANOKHIN)   
1 57193U 23091AD  25025.80620137  .00016898  00000+0  86354-3 0  9991
2 57193  97.5815  83.0561 0016185  78.5109 281.7940 15.16631354 87153
SITRO-AIS 7 (FARTUSHNIY)
1 57194U 23091AE  25025.80724070  .00015346  00000+0  80751-3 0  9995
2 57194  97.5818  82.7512 0016539  78.8601 281.4490 15.15616197 87134
SITRO-AIS 10 (BURDAEV)  
1 57199U 23091AK  25025.79015740  .00018959  00000+0  89920-3 0  9995
2 57199  97.5825  84.7201 0011562  66.1118 294.1326 15.19270303 87259
SITRO-AIS 9 (SHCHUKIN)  
1 57201U 23091AM  25025.79519090  .00018448  00000+0  87770-3 0  9990
2 57201  97.5821  84.6765 0011563  66.2352 294.0094 15.19166441 87253
SITRO-AIS 12 (SMIRENNIY)
1 57204U 23091AQ  25025.79502601  .00018792  00000+0  88887-3 0  9995
2 57204  97.5831  84.8999 0011426  60.7561 299.4814 15.19365849 87260
SITRO-AIS 11 (SHEFFER)  
1 57208U 23091AU  25025.82891587  .00019386  00000+0  91294-3 0  9993
2 57208  97.5830  84.9912 0011292  61.0255 299.2110 15.19513392 87270
VERONIKA                
1 58261U 23174F   25025.78756618  .00061872  00000+0  14485-2 0  9998
2 58261  97.4335 107.0613 0007837 172.2997 187.8372 15.41874981 67743
ROBUSTA-1E (ENSO)       
1 58470U 23185J   25025.83468554  .00044349  00000+0  11126-2 0  9996
2 58470  97.3957  98.1772 0008708 203.3804 156.7047 15.39855096 64194
SITRO-AIS 29            
1 59052U 24039B   25025.79133807  .00092429  00000+0  13859-2 0  9994
2 59052  97.4111 355.8468 0014077 123.0024 237.2585 15.54501186 50829
SITRO-AIS 30            
1 59053U 24039C   25025.83679653  .00087163  00000+0  13490-2 0  9994
2 59053  97.4101 355.7780 0014240 123.9416 236.3193 15.53645007 50815
SITRO-AIS 31            
1 59054U 24039D   25025.78718005  .00090329  00000+0  13659-2 0  9999
2 59054  97.4119 355.8483 0013834 125.7263 234.5279 15.54280466 50836
SITRO-AIS 33            
1 59055U 24039E   25025.82568639  .00090521  00000+0  13615-2 0  9997
2 59055  97.4110 355.9601 0013642 123.5466 236.7092 15.54430230 50832
SITRO-AIS 35            
1 59056U 24039F   25025.81672616  .00092488  00000+0  13846-2 0  9998
2 59056  97.4118 355.9686 0013589 125.8577 234.3941 15.54552213 50835
SITRO-AIS 32            
1 59057U 24039G   25025.79604681  .00086291  00000+0  13206-2 0  9998
2 59057  97.4120 355.8526 0013794 125.4898 234.7644 15.53965530 50823
SITRO-AIS 34            
1 59058U 24039H   25025.82581765  .00091456  00000+0  13767-2 0  9991
2 59058  97.4113 355.9628 0013583 123.9162 236.3386 15.54404790 50832
SITRO-AIS 36            
1 59059U 24039J   25025.80282385  .00088233  00000+0  13299-2 0  9995
2 59059  97.4098 355.9845 0013261 124.5711 235.6796 15.54386414 50835
SITRO-AIS 49            
1 59060U 24039K   25025.83240321  .00088055  00000+0  13486-2 0  9994
2 59060  97.4109 355.9512 0013602 124.4141 235.8400 15.53941266 50831
SITRO-AIS 50            
1 59061U 24039L   25025.82316195  .00094267  00000+0  13839-2 0  9991
2 59061  97.4097 356.1072 0013229 122.3799 237.8737 15.55087572 50842
SITRO-AIS 51            
1 59062U 24039M   25025.81561156  .00098100  00000+0  14276-2 0  9996
2 59062  97.4098 356.1149 0013299 122.2970 237.9575 15.55312056 50845
SITRO-AIS 52            
1 59063U 24039N   25025.79522203  .00090993  00000+0  13211-2 0  9994
2 59063  97.4110 356.1518 0013161 124.7767 235.4728 15.55403687 50844
SITRO-AIS 25            
1 59066U 24039R   25025.78643590  .00009391  00000+0  83000-3 0  9995
2 59066  95.3837 248.3690 0158995 295.2669  63.2148 14.87171646 49148
SITRO-AIS 26            
1 59067U 24039S   25025.79919762  .00009166  00000+0  81276-3 0  9997
2 59067  95.3836 248.3570 0159216 295.3370  63.1435 14.87030343 49148
SITRO-AIS 27            
1 59068U 24039T   25025.82262031  .00010136  00000+0  89309-3 0  9996
2 59068  95.3839 248.4501 0158466 294.8298  63.6514 14.87327870 49154
SITRO-AIS 28            
1 59071U 24039U   25025.81336636  .00009773  00000+0  86068-3 0  9996
2 59071  95.3839 248.4623 0158347 294.7916  63.6904 14.87368747 49158
GRBBETA                 
1 60237U 24128C   25025.56521904  .00007767  00000+0  61906-3 0  9992
2 60237  61.9912 189.6167 0037230  25.7859 334.5076 15.00552273 29927
OOV-CUBE (TUBSAT-30)    
1 60240U 24128F   25025.44036345  .00005779  00000+0  48601-3 0  9991
2 60240  61.9960 191.2896 0035674  21.7867 338.4730 14.98882790 29899
ROBUSTA-3A (MEDITERRAN*)
1 60243U 24128J   25025.53425617  .00010249  00000+0  79694-3 0  9992
2 60243  61.9886 189.9453 0035371  17.5912 342.6394 15.01290351 29928
